NORAD_CAT_ID,OBJECT_NAME,OBJECT_TYPE,EPOCH,MEAN_MOTION,ECCENTRICITY,INCLINATION,RA_OF_ASC_NODE,ARG_OF_PERICENTER,MEAN_ANOMALY,BSTAR,MEAN_MOTION_DOT,MEAN_MOTION_DDOT,TLE_LINE0,TLE_LINE1,TLE_LINE2,SEMIMAJOR_AXIS,PERIOD,APOGEE,PERIGEE,DECAYED
53394.0,STARLINK-4544,PAYLOAD,2024-02-24 17:05:28,15.08839055,0.0001458,53.2143,213.5754,91.4733,268.6426,2.8047e-05,1.58e-06,0.0,0 STARLINK-4544,1 53394U 22097G   24055.71213422  .00000158  00000-0  28047-4 0  9991,2 53394  53.2143 213.5754 0001458  91.4733 268.6426 15.08839055 86503,6917.883,95.438,540.757,538.74,0.0
53394.0,STARLINK-4544,PAYLOAD,2024-02-25 13:45:28,15.0884531,0.0001318,53.2157,209.7112,85.4647,274.6495,6.5697e-05,7.58e-06,0.0,0 STARLINK-4544,1 53394U 22097G   24056.57325001  .00000758  00000-0  65697-4 0  9991,2 53394  53.2157 209.7112 0001318  85.4647 274.6495 15.08845310 85980,6917.864,95.437,540.641,538.817,0.0
53394.0,STARLINK-4544,PAYLOAD,2024-02-25 16:56:14,15.08850138,0.0001457,53.2156,209.1161,89.7837,270.3322,0.00010575,1.396e-05,0.0,0 STARLINK-4544,1 53394U 22097G   24056.70572569  .00001396  00000-0  10575-3 0  9992,2 53394  53.2156 209.1161 0001457  89.7837 270.3322 15.08850138 86650,6917.849,95.437,540.722,538.706,0.0
53394.0,STARLINK-4544,PAYLOAD,2024-02-26 13:36:17,15.08827185,0.0001536,53.2181,205.2525,107.1986,252.9175,-2.0165e-06,-3.2e-06,0.0,0 STARLINK-4544,1 53394U 22097G   24057.56686685 -.00000320  00000-0 -20165-5 0  9998,2 53394  53.2181 205.2525 0001536 107.1986 252.9175 15.08827185 86789,6917.92,95.438,540.847,538.722,0.0
53394.0,STARLINK-4544,PAYLOAD,2024-02-26 15:11:40,15.08827124,0.0001579,53.2169,204.9545,108.9536,251.1627,-4.2864e-06,-3.56e-06,0.0,0 STARLINK-4544,1 53394U 22097G   24057.63310739 -.00000356  00000-0 -42864-5 0  9999,2 53394  53.2169 204.9545 0001579 108.9536 251.1627 15.08827124 86146,6917.92,95.438,540.877,538.692,0.0
53394.0,STARLINK-4544,PAYLOAD,2024-02-27 10:16:17,15.08841283,0.0001509,53.2175,201.3871,108.0565,252.0591,1.2611e-05,-8.7e-07,0.0,0 STARLINK-4544,1 53394U 22097G   24058.42798145 -.00000087  00000-0  12611-4 0  9994,2 53394  53.2175 201.3871 0001509 108.0565 252.0591 15.08841283 86267,6917.876,95.437,540.785,538.698,0.0
53394.0,STARLINK-4544,PAYLOAD,2024-02-27 13:27:03,15.08841838,0.0001666,53.2181,200.7938,114.6795,245.4371,2.4867e-05,1.08e-06,0.0,0 STARLINK-4544,1 53394U 22097G   24058.56046052  .00000108  00000-0  24867-4 0  9991,2 53394  53.2181 200.7938 0001666 114.6795 245.4371 15.08841838 86935,6917.875,95.437,540.892,538.587,0.0
53394.0,STARLINK-4544,PAYLOAD,2024-02-27 19:48:35,15.08849658,0.0001421,53.2171,199.601,102.7679,257.3472,8.8509e-05,1.121e-05,0.0,0 STARLINK-4544,1 53394U 22097G   24058.82541426  .00001121  00000-0  88509-4 0  9994,2 53394  53.2171 199.6010 0001421 102.7679 257.3472 15.08849658 86324,6917.851,95.437,540.699,538.733,0.0
53394.0,STARLINK-4544,PAYLOAD,2024-02-28 02:10:08,15.08843705,0.0001013,53.2148,198.4079,83.2996,276.8111,2.0961e-05,4.6e-07,0.0,0 STARLINK-4544,1 53394U 22097G   24059.09037892  .00000046  00000-0  20961-4 0  9994,2 53394  53.2148 198.4079 0001013  83.2996 276.8111 15.08843705 86369,6917.869,95.437,540.435,539.033,0.0
53394.0,STARLINK-4544,PAYLOAD,2024-02-28 13:17:51,15.08829792,0.0001374,53.2155,196.3278,92.21,267.905,0.00015845,2.234e-05,0.0,0 STARLINK-4544,1 53394U 22097G   24059.55406997  .00002234  00000-0  15845-3 0  9996,2 53394  53.2155 196.3278 0001374  92.2100 267.9050 15.08829792 86433,6917.912,95.438,540.727,538.826,0.0
53394.0,STARLINK-4544,PAYLOAD,2024-02-28 18:04:00,15.08838584,0.0001434,53.2159,195.4352,94.059,266.0566,0.00012796,1.749e-05,0.0,0 STARLINK-4544,1 53394U 22097G   24059.75278524  .00001749  00000-0  12796-3 0  9993,2 53394  53.2159 195.4352 0001434  94.0590 266.0566 15.08838584 86464,6917.885,95.438,540.742,538.758,0.0
53394.0,STARLINK-4544,PAYLOAD,2024-02-29 14:44:00,15.08848763,0.0001422,53.2164,191.57,91.6767,268.4388,9.8789e-05,1.285e-05,0.0,0 STARLINK-4544,1 53394U 22097G   24060.61389958  .00001285  00000-0  98789-4 0  9996,2 53394  53.2164 191.5700 0001422  91.6767 268.4388 15.08848763 87245,6917.854,95.437,540.702,538.735,0.0
53394.0,STARLINK-4544,PAYLOAD,2024-02-29 16:19:23,15.08851151,0.0001283,53.2163,191.2738,91.2578,268.8561,0.0001167,1.57e-05,0.0,0 STARLINK-4544,1 53394U 22097G   24060.68013742  .00001570  00000-0  11670-3 0  9998,2 53394  53.2163 191.2738 0001283  91.2578 268.8561 15.08851151 86604,6917.846,95.437,540.599,538.824,0.0
53394.0,STARLINK-4544,PAYLOAD,2024-03-01 14:34:48,15.08840334,0.000136,53.2161,187.1107,91.7499,268.3649,7.8486e-05,9.61e-06,0.0,0 STARLINK-4544,1 53394U 22097G   24061.60750363  .00000961  00000-0  78486-4 0  9990,2 53394  53.2161 187.1107 0001360  91.7499 268.3649 15.08840334 87399,6917.879,95.438,540.685,538.804,0.0
53394.0,STARLINK-4544,PAYLOAD,2024-03-02 14:25:34,15.08851337,0.0001381,53.2157,182.65,99.8962,260.2186,1.868e-06,-2.58e-06,0.0,0 STARLINK-4544,1 53394U 22097G   24062.60109574 -.00000258  00000-0  18680-5 0  9994,2 53394  53.2157 182.6500 0001381  99.8962 260.2186 15.08851337 87547,6917.846,95.437,540.666,538.755,0.0
53394.0,STARLINK-4544,PAYLOAD,2024-03-03 11:05:35,15.08840194,0.0001433,53.2153,178.7841,91.4524,268.6632,7.5093e-05,9.07e-06,0.0,0 STARLINK-4544,1 53394U 22097G   24063.46222104  .00000907  00000-0  75093-4 0  9994,2 53394  53.2153 178.7841 0001433  91.4524 268.6632 15.08840194 87027,6917.88,95.438,540.736,538.753,0.0
53394.0,STARLINK-4544,PAYLOAD,2024-03-03 14:16:22,15.08842518,0.0001552,53.2167,178.1893,96.7066,263.4103,5.728e-05,6.24e-06,0.0,0 STARLINK-4544,1 53394U 22097G   24063.59469947  .00000624  00000-0  57280-4 0  9990,2 53394  53.2167 178.1893 0001552  96.7066 263.4103 15.08842518 87695,6917.873,95.437,540.811,538.664,0.0
53394.0,STARLINK-4544,PAYLOAD,2024-03-04 12:31:45,15.08855938,0.0001529,53.216,174.0277,79.393,280.7235,9.8583e-05,1.282e-05,0.0,0 STARLINK-4544,1 53394U 22097G   24064.52205035  .00001282  00000-0  98583-4 0  9992,2 53394  53.2160 174.0277 0001529  79.3930 280.7235 15.08855938 87182,6917.832,95.437,540.754,538.639,0.0
53394.0,STARLINK-4544,PAYLOAD,2024-03-04 14:07:07,15.08862877,0.0001473,53.2157,173.7304,89.9595,270.1566,0.00035794,5.417e-05,0.0,0 STARLINK-4544,1 53394U 22097G   24064.58828652  .00005417  00000-0  35794-3 0  9992,2 53394  53.2157 173.7304 0001473  89.9595 270.1566 15.08862877 87840,6917.81,95.436,540.694,538.656,0.0
53394.0,STARLINK-4544,PAYLOAD,2024-03-05 12:22:33,15.08822694,0.0001473,53.2162,169.567,104.6823,255.4333,-0.00022944,-3.936e-05,0.0,0 STARLINK-4544,1 53394U 22097G   24065.51566941 -.00003936  00000-0 -22944-3 0  9995,2 53394  53.2162 169.5670 0001473 104.6823 255.4333 15.08822694 87980,6917.933,95.439,540.817,538.779,0.0
53394.0,STARLINK-4544,PAYLOAD,2024-03-05 17:08:43,15.08823374,0.0001518,53.2159,168.6732,108.1674,251.9483,-0.00020833,-3.6e-05,0.0,0 STARLINK-4544,1 53394U 22097G   24065.71439044 -.00003600  00000-0 -20833-3 0  9993,2 53394  53.2159 168.6732 0001518 108.1674 251.9483 15.08823374 87363,6917.931,95.439,540.846,538.746,0.0
53394.0,STARLINK-4544,PAYLOAD,2024-03-06 10:37:57,15.08834044,0.0001277,53.2158,165.4032,84.2628,275.851,-0.00017438,-3.062e-05,0.0,0 STARLINK-4544,1 53394U 22097G   24066.44302868 -.00003062  00000-0 -17438-3 0  9996,2 53394  53.2158 165.4032 0001277  84.2628 275.8510 15.08834044 87479,6917.899,95.438,540.647,538.88,0.0
53394.0,STARLINK-4544,PAYLOAD,2024-03-06 12:13:20,15.08835211,0.0001309,53.2155,165.1062,86.9159,273.1983,-0.00013552,-2.444e-05,0.0,0 STARLINK-4544,1 53394U 22097G   24066.50926859 -.00002444  00000-0 -13552-3 0  9991,2 53394  53.2155 165.1062 0001309  86.9159 273.1983 15.08835211 88136,6917.895,95.438,540.666,538.854,0.0
53394.0,STARLINK-4544,PAYLOAD,2024-03-06 23:21:02,15.0884229,0.00013,53.2156,163.0246,86.5357,273.5783,6.9327e-05,8.16e-06,0.0,0 STARLINK-4544,1 53394U 22097G   24066.97294755  .00000816  00000-0  69327-4 0  9996,2 53394  53.2156 163.0246 0001300  86.5357 273.5783 15.08842290 87557,6917.873,95.437,540.638,538.839,0.0
53394.0,STARLINK-4544,PAYLOAD,2024-03-07 13:39:31,15.08838399,0.0001677,53.2167,160.3502,92.7609,267.3575,0.00038037,5.77e-05,0.0,0 STARLINK-4544,1 53394U 22097G   24067.56911772  .00005770  00000-0  38037-3 0  9994,2 53394  53.2167 160.3502 0001677  92.7609 267.3575 15.08838399 88297,6917.885,95.438,540.91,538.59,0.0
53394.0,STARLINK-4544,PAYLOAD,2024-03-08 11:54:54,15.0885395,0.000143,53.2156,156.1872,109.5192,250.5954,0.00023857,3.512e-05,0.0,0 STARLINK-4544,1 53394U 22097G   24068.49646661  .00003512  00000-0  23857-3 0  9995,2 53394  53.2156 156.1872 0001430 109.5192 250.5954 15.08853950 88430,6917.838,95.437,540.692,538.713,0.0
53394.0,STARLINK-4544,PAYLOAD,2024-03-09 05:24:09,15.08839227,0.000187,53.2158,152.9153,80.1955,279.9248,1.4078e-06,-2.66e-06,0.0,0 STARLINK-4544,1 53394U 22097G   24069.22511479 -.00000266  00000-0  14078-5 0  9996,2 53394  53.2158 152.9153 0001870  80.1955 279.9248 15.08839227 87898,6917.883,95.438,541.041,538.454,0.0
53394.0,STARLINK-4544,PAYLOAD,2024-03-09 11:45:42,15.08841143,0.0001649,53.2144,151.7255,80.2112,279.9066,3.2376e-05,2.27e-06,0.0,0 STARLINK-4544,1 53394U 22097G   24069.49007305  .00000227  00000-0  32376-4 0  9999,2 53394  53.2144 151.7255 0001649  80.2112 279.9066 15.08841143 88588,6917.877,95.437,540.883,538.601,0.0
53394.0,STARLINK-4544,PAYLOAD,2024-03-10 11:36:29,15.08846276,0.0001656,53.2159,147.2639,90.4717,269.6465,5.3505e-05,5.64e-06,0.0,0 STARLINK-4544,1 53394U 22097G   24070.48366919  .00000564  00000-0  53505-4 0  9990,2 53394  53.2159 147.2639 0001656  90.4717 269.6465 15.08846276 88088,6917.861,95.437,540.872,538.581,0.0
53394.0,STARLINK-4544,PAYLOAD,2024-03-10 14:47:15,15.08848916,0.0001657,53.2161,146.6689,91.4104,268.7078,9.6558e-05,1.249e-05,0.0,0 STARLINK-4544,1 53394U 22097G   24070.61614762  .00001249  00000-0  96558-4 0  9993,2 53394  53.2161 146.6689 0001657  91.4104 268.7078 15.08848916 88758,6917.853,95.437,540.864,538.572,0.0
